{
  "links" : {
    "next" : "https://api.nasa.gov/neo/rest/v1/neo/browse?page=25&size=20&api_key=jqAGvNAwUIBu4fl9FSOjdm3V4F7hIglRzI6pdX9d",
    "prev" : "https://api.nasa.gov/neo/rest/v1/neo/browse?page=23&size=20&api_key=jqAGvNAwUIBu4fl9FSOjdm3V4F7hIglRzI6pdX9d",
    "self" : "https://api.nasa.gov/neo/rest/v1/neo/browse?page=24&size=20&api_key=jqAGvNAwUIBu4fl9FSOjdm3V4F7hIglRzI6pdX9d"
  },
  "page" : {
    "size" : 20,
    "total_elements" : 20750,
    "total_pages" : 1038,
    "number" : 24
  },
  "near_earth_objects" : [ {
    "links" : {
      "self" : "https://api.nasa.gov/neo/rest/v1/neo/3311958?api_key=jqAGvNAwUIBu4fl9FSOjdm3V4F7hIglRzI6pdX9d"
    },
    "neo_reference_id" : "3311958",
    "name" : "(2006 AF4)",
    "designation" : "2006 AF4",
    "nasa_jpl_url" : "http://ssd.jpl.nasa.gov/sbdb.cgi?sstr=3311958",
    "absolute_magnitude_h" : 23.8,
    "estimated_diameter" : {
      "kilometers" : {
        "estimated_diameter_min" : 0.046190746,
        "estimated_diameter_max" : 0.1032856481
      },
      "meters" : {
        "estimated_diameter_min" : 46.1907460282,
        "estimated_diameter_max" : 103.2856480504
      },
      "miles" : {
        "estimated_diameter_min" : 0.0287015901,
        "estimated_diameter_max" : 0.0641787064
      },
      "feet" : {
        "estimated_diameter_min" : 151.544447199,
        "estimated_diameter_max" : 338.8636855496
      }
    },
    "is_potentially_hazardous_asteroid" : false,
    "close_approach_data" : [ {
      "close_approach_date" : "2005-12-16",
      "epoch_date_close_approach" : 1134720000000,
      "relative_velocity" : {
        "kilometers_per_second" : "7.6906125584",
        "kilometers_per_hour" : "27686.2052101053",
        "miles_per_hour" : "17203.1312318013"
      },
      "miss_distance" : {
        "astronomical" : "0.0883721212",
        "lunar" : "34.3767547607",
        "kilometers" : "13220281",
        "miles" : "8214701.5"
      },
      "orbiting_body" : "Earth"
    } ],
    "orbital_data" : {
      "orbit_id" : "11",
      "orbit_determination_date" : "2017-04-06 09:09:27",
      "first_observation_date" : "2006-01-07",
      "last_observation_date" : "2006-01-31",
      "data_arc_in_days" : 24,
      "observations_used" : 34,
      "orbit_uncertainty" : "8",
      "minimum_orbit_intersection" : ".0881728",
      "jupiter_tisserand_invariant" : "3.368",
      "epoch_osculation" : "2453748.5",
      "eccentricity" : ".5504546294718289",
      "semi_major_axis" : "2.295657369611657",
      "inclination" : "6.708319350457041",
      "ascending_node_longitude" : "296.1442284979397",
      "orbital_period" : "1270.454251856552",
      "perihelion_distance" : "1.032002142827799",
      "perihelion_argument" : "132.2346886052582",
      "aphelion_distance" : "3.559312596395515",
      "perihelion_time" : "2453707.502129271716",
      "mean_anomaly" : "11.61728841523742",
      "mean_motion" : ".2833632139637626",
      "equinox" : "J2000",
      "orbit_class" : {
        "orbit_class_type" : "AMO",
        "orbit_class_range" : "1.017 AU < q (perihelion) < 1.3 AU",
        "orbit_class_description" : "Near-Earth asteroid orbits similar to that of 1221 Amor"
      }
    },
    "is_sentry_object" : false
  }, {
    "links" : {
      "self" : "https://api.nasa.gov/neo/rest/v1/neo/3311959?api_key=jqAGvNAwUIBu4fl9FSOjdm3V4F7hIglRzI6pdX9d"
    },
    "neo_reference_id" : "3311959",
    "name" : "(2006 AG4)",
    "designation" : "2006 AG4",
    "nasa_jpl_url" : "http://ssd.jpl.nasa.gov/sbdb.cgi?sstr=3311959",
    "absolute_magnitude_h" : 23.1,
    "estimated_diameter" : {
      "kilometers" : {
        "estimated_diameter_min" : 0.063760979,
        "estimated_diameter_max" : 0.1425738833
      },
      "meters" : {
        "estimated_diameter_min" : 63.7609789875,
        "estimated_diameter_max" : 142.5738833281
      },
      "miles" : {
        "estimated_diameter_min" : 0.0396192233,
        "estimated_diameter_max" : 0.0885912765
      },
      "feet" : {
        "estimated_diameter_min" : 209.1895703015,
        "estimated_diameter_max" : 467.7620993781
      }
    },
    "is_potentially_hazardous_asteroid" : false,
    "close_approach_data" : [ {
      "close_approach_date" : "2005-12-20",
      "epoch_date_close_approach" : 1135065600000,
      "relative_velocity" : {
        "kilometers_per_second" : "4.6511659232",
        "kilometers_per_hour" : "16744.197323667",
        "miles_per_hour" : "10404.1930536974"
      },
      "miss_distance" : {
        "astronomical" : "0.22825217",
        "lunar" : "88.7900924683",
        "kilometers" : "34146040",
        "miles" : "21217366"
      },
      "orbiting_body" : "Earth"
    } ],
    "orbital_data" : {
      "orbit_id" : "9",
      "orbit_determination_date" : "2017-04-06 09:09:27",
      "first_observation_date" : "2006-01-07",
      "last_observation_date" : "2006-02-06",
      "data_arc_in_days" : 30,
      "observations_used" : 27,
      "orbit_uncertainty" : "8",
      "minimum_orbit_intersection" : ".210814",
      "jupiter_tisserand_invariant" : "3.227",
      "epoch_osculation" : "2453747.5",
      "eccentricity" : ".531016517867433",
      "semi_major_axis" : "2.540424026886986",
      "inclination" : "5.584723774659763",
      "ascending_node_longitude" : "107.8412215451504",
      "orbital_period" : "1478.964481583486",
      "perihelion_distance" : "1.191416906222697",
      "perihelion_argument" : "338.494925062501",
      "aphelion_distance" : "3.889431147551276",
      "perihelion_time" : "2453717.871876051800",
      "mean_anomaly" : "7.211886934520618",
      "mean_motion" : ".243413553525341",
      "equinox" : "J2000",
      "orbit_class" : {
        "orbit_class_type" : "AMO",
        "orbit_class_range" : "1.017 AU < q (perihelion) < 1.3 AU",
        "orbit_class_description" : "Near-Earth asteroid orbits similar to that of 1221 Amor"
      }
    },
    "is_sentry_object" : false
  }, {
    "links" : {
      "self" : "https://api.nasa.gov/neo/rest/v1/neo/3311962?api_key=jqAGvNAwUIBu4fl9FSOjdm3V4F7hIglRzI6pdX9d"
    },
    "neo_reference_id" : "3311962",
    "name" : "(2006 AK4)",
    "designation" : "2006 AK4",
    "nasa_jpl_url" : "http://ssd.jpl.nasa.gov/sbdb.cgi?sstr=3311962",
    "absolute_magnitude_h" : 23.2,
    "estimated_diameter" : {
      "kilometers" : {
        "estimated_diameter_min" : 0.0608912622,
        "estimated_diameter_max" : 0.1361570015
      },
      "meters" : {
        "estimated_diameter_min" : 60.8912622106,
        "estimated_diameter_max" : 136.1570015386
      },
      "miles" : {
        "estimated_diameter_min" : 0.0378360645,
        "estimated_diameter_max" : 0.0846040122
      },
      "feet" : {
        "estimated_diameter_min" : 199.7744887109,
        "estimated_diameter_max" : 446.7093369279
      }
    },
    "is_potentially_hazardous_asteroid" : false,
    "close_approach_data" : [ {
      "close_approach_date" : "2005-11-27",
      "epoch_date_close_approach" : 1133078400000,
      "relative_velocity" : {
        "kilometers_per_second" : "8.8244519825",
        "kilometers_per_hour" : "31768.0271369892",
        "miles_per_hour" : "19739.4166396475"
      },
      "miss_distance" : {
        "astronomical" : "0.123052335",
        "lunar" : "47.8673591614",
        "kilometers" : "18408368",
        "miles" : "11438429"
      },
      "orbiting_body" : "Earth"
    } ],
    "orbital_data" : {
      "orbit_id" : "9",
      "orbit_determination_date" : "2017-04-06 09:09:27",
      "first_observation_date" : "2006-01-07",
      "last_observation_date" : "2006-01-25",
      "data_arc_in_days" : 18,
      "observations_used" : 23,
      "orbit_uncertainty" : "7",
      "minimum_orbit_intersection" : ".0991281",
      "jupiter_tisserand_invariant" : "3.059",
      "epoch_osculation" : "2458600.5",
      "eccentricity" : ".6301987819048736",
      "semi_major_axis" : "2.651489855423456",
      "inclination" : "8.530170329177492",
      "ascending_node_longitude" : "298.2683813389556",
      "orbital_period" : "1577.006130590765",
      "perihelion_distance" : ".9805241783024646",
      "perihelion_argument" : "115.1760053737401",
      "aphelion_distance" : "4.322455532544447",
      "perihelion_time" : "2458427.905588090427",
      "mean_anomaly" : "39.39996622852081",
      "mean_motion" : ".2282806598000604",
      "equinox" : "J2000",
      "orbit_class" : {
        "orbit_class_type" : "APO",
        "orbit_class_range" : "a (semi-major axis) > 1.0 AU; q (perihelion) < 1.017 AU",
        "orbit_class_description" : "Near-Earth asteroid orbits which cross the Earth’s orbit similar to that of 1862 Apollo"
      }
    },
    "is_sentry_object" : false
  } ]
}